{
    "links": {
        "self": "http://www.neowsapp.com/rest/v1/neo/3599484?api_key=iIulBulltgU6a56xZRHN4H3l9WmuAYTsLGpBGhQ2"
    },
    "id": "3599484",
    "neo_reference_id": "3599484",
    "name": "(2012 DM4)",
    "designation": "2012 DM4",
    "nasa_jpl_url": "http://ssd.jpl.nasa.gov/sbdb.cgi?sstr=3599484",
    "absolute_magnitude_h": 24.2,
    "estimated_diameter": {
        "kilometers": {
            "estimated_diameter_min": 0.0384197891,
            "estimated_diameter_max": 0.0859092601
        },
        "meters": {
            "estimated_diameter_min": 38.4197891064,
            "estimated_diameter_max": 85.9092601232
        },
        "miles": {
            "estimated_diameter_min": 0.0238729428,
            "estimated_diameter_max": 0.0533815229
        },
        "feet": {
            "estimated_diameter_min": 126.0491808919,
            "estimated_diameter_max": 281.8545369825
        }
    },
    "is_potentially_hazardous_asteroid": false,
    "close_approach_data": [
        {
            "close_approach_date": "2012-02-13",
            "close_approach_date_full": "2012-Feb-13 00:23",
            "epoch_date_close_approach": 1329092580000,
            "relative_velocity": {
                "kilometers_per_second": "8.7995289059",
                "kilometers_per_hour": "31678.3040613915",
                "miles_per_hour": "19683.6662097019"
            },
            "miss_distance": {
                "astronomical": "0.0741232316",
                "lunar": "28.8339370924",
                "kilometers": "11088677.564876692",
                "miles": "6890184.7367026696"
            },
            "orbiting_body": "Earth"
        }
    ],
    "orbital_data": {
        "orbit_id": "7",
        "orbit_determination_date": "2017-04-06 08:50:53",
        "first_observation_date": "2012-02-19",
        "last_observation_date": "2012-03-17",
        "data_arc_in_days": 27,
        "observations_used": 39,
        "orbit_uncertainty": "7",
        "minimum_orbit_intersection": ".073147",
        "jupiter_tisserand_invariant": "3.732",
        "epoch_osculation": "2459000.5",
        "eccentricity": ".4609954940617147",
        "semi_major_axis": "1.947260873362062",
        "inclination": "12.64767734275297",
        "ascending_node_longitude": "148.2006364726144",
        "orbital_period": "992.5094105521252",
        "perihelion_distance": "1.049582384979472",
        "perihelion_argument": "342.2891342907387",
        "aphelion_distance": "2.844939361744652",
        "perihelion_time": "2458936.536391022867",
        "mean_anomaly": "23.20068604584643",
        "mean_motion": ".3627169638620704",
        "equinox": "J2000",
        "orbit_class": {
            "orbit_class_type": "AMO",
            "orbit_class_description": "Near-Earth asteroid orbits similar to that of 1221 Amor",
            "orbit_class_range": "1.017 AU < q (perihelion) < 1.3 AU"
        }
    },
    "is_sentry_object": false
}